{
  "norad_id": 60128,
  "name": "STARLINK-31813",
  "history": [
    {
      "epoch": "2026-03-28T20:59:36.430944Z",
      "apogee_km": 475.9546702736552,
      "perigee_km": 474.50778717320827,
      "latitude_deg": -3.0506033167870677e-05,
      "longitude_deg": 156.41787527432672,
      "height_km": 476.2983002783271,
      "semi_major_axis_km": 6853.3682287234315,
      "eccentricity": 0.00010556,
      "inclination_deg": 53.1593,
      "raan_deg": 297.6086,
      "arg_perigee_deg": 103.4885,
      "mean_anomaly_deg": 256.6233,
      "mean_motion_rev_day": 15.30194588
    }
  ]
}