{"fetched_at":"2026-03-30T09:12:31Z","count":15922,"tles":[{"name":"STARLINK-31813","line1":"1 60128U 24118R   26087.87472721  .00006319  00000+0  22532-3 0  9999","line2":"2 60128  53.1593 297.6086 0001055 103.4885 256.6233 15.30194588 98630","category":"Starlink"}]}